LANDSAT 9               
1 49260U 21088A   24068.08979919  .00000702  00000+0  16588-3 0  9991
2 49260  98.1971 139.3799 0001415  97.3540 262.7819 14.57113500129967
